COSMOS 2433 (720)       
1 32275U 07052A   24133.08604878 -.00000069  00000+0  00000+0 0  9991
2 32275  65.9473 341.5882 0000510 243.9188 116.1110  2.13104092128731
COSMOS 2432 (719)       
1 32276U 07052B   24133.44564932 -.00000069  00000+0  00000+0 0  9998
2 32276  65.9622 341.6893 0009595 339.2228 243.0426  2.13103310128762
COSMOS 2434 (721)       
1 32393U 07065A   24133.23028920  .00000001  00000+0  00000+0 0  9996
2 32393  64.3200 217.7930 0001603  82.0165 280.7912  2.13103179127453
COSMOS 2436 (723)       
1 32395U 07065C   24133.47328494 -.00000001  00000+0  00000+0 0  9994
2 32395  64.3286 217.8490 0016001 358.4147 326.0416  2.13102944127406
COSMOS 2456 (730)       
1 36111U 09070A   24132.31151222  .00000011  00000+0  00000+0 0  9997
2 36111  64.5980  97.2216 0006030 309.5769 223.6711  2.13099091112089
COSMOS 2457 (733)       
1 36112U 09070B   24133.31315150  .00000019  00000+0  00000+0 0  9999
2 36112  64.5828  97.0468 0002668 191.7867 162.6387  2.13101278112106
COSMOS 2460 (732)       
1 36402U 10007C   24134.49169338 -.00000064  00000+0  00000+0 0  9999
2 36402  65.8043 340.2135 0002423  59.9678 110.0599  2.13106330110529
COSMOS 2476 (744)       
1 37867U 11064A   24133.36254552  .00000022  00000+0  00000+0 0  9990
2 37867  64.8729  98.8075 0023767 241.6135 289.4548  2.13101681 97440
COSMOS 2477 (745)       
1 37868U 11064B   24130.32443627  .00000005  00000+0  00000+0 0  9998
2 37868  64.8786  98.9825 0021114 243.3408 294.8681  2.13103088 97377
COSMOS 2475 (743)       
1 37869U 11064C   24134.48376052  .00000032  00000+0  00000+0 0  9997
2 37869  64.8873  98.8559 0026262 256.7192 190.9446  2.13101928 97461
COSMOS 2485 (747)       
1 39155U 13019A   24133.08137698  .00000021  00000+0  00000+0 0  9993
2 39155  65.0306  99.3934 0023979 237.7212 122.0173  2.13101844 85953
COSMOS 2492 (754)       
1 39620U 14012A   24133.97542656 -.00000066  00000+0  00000+0 0  9996
2 39620  65.6865 339.8128 0012255 331.7392  28.2267  2.13103238 78932
COSMOS 2500 (755)       
1 40001U 14032A   24134.15528299 -.00000065  00000+0  00000+0 0  9990
2 40001  65.6235 339.6146 0005029 185.0709 174.9562  2.13106052 77156
COSMOS 2501 (702K)      
1 40315U 14075A   24133.00030494  .00000004  00000+0  00000+0 0  9995
2 40315  63.6219 216.9343 0020136 208.6556 151.2889  2.13101505 73523
COSMOS 2514 (751)       
1 41330U 16008A   24132.98253494 -.00000068  00000+0  00000+0 0  9995
2 41330  65.4191 339.1727 0008527 202.7508 157.2433  2.13102738 64290
COSMOS 2522 (752)       
1 42939U 17055A   24133.29237222  .00000000  00000+0  00000+0 0  9995
2 42939  64.0827 217.9941 0008681 237.3952 122.5746  2.13101856 51654
COSMOS 2527 (756)       
1 43508U 18053A   24133.25125670  .00000023  00000+0  00000+0 0  9991
2 43508  65.1910  99.5325 0009213 245.0822 114.7933  2.13102358 45951
COSMOS 2529 (757)       
1 43687U 18086A   24134.28893615 -.00000011  00000+0  00000+0 0  9998
2 43687  64.2982 218.4634 0010011 259.1144 100.8247  2.13102078 42987
COSMOS 2534 (758)       
1 44299U 19030A   24134.35396546 -.00000011  00000+0  00000+0 0  9997
2 44299  64.3713 218.4113 0011976 280.9434 263.1000  2.13102326 38618
COSMOS 2544 (759)       
1 44850U 19088A   24133.19524876  .00000022  00000+0  00000+0 0  9994
2 44850  65.1776  99.3723 0014852 262.5519  97.2504  2.13102141 34399
COSMOS 2545 (760)       
1 45358U 20018A   24132.92306943 -.00000070  00000+0  00000+0 0  9990
2 45358  64.7592 339.2152 0006906 246.3091 113.6500  2.13102633 32339
COSMOS 2547 (705K)      
1 46805U 20075A   24134.04909518 -.00000008  00000+0  00000+0 0  9994
2 46805  64.5998 218.0527 0007819 239.0766 120.8991  2.13103150 27600
COSMOS 2557 (706K)      
1 52984U 22075A   24134.21376978 -.00000069  00000+0  00000+0 0  9995
2 52984  64.6836 341.3040 0010815 285.6805  74.2336  2.13102063 14409
COSMOS 2559 (707K)      
1 54031U 22130A   24134.15654411 -.00000069  00000+0  00000+0 0  9996
2 54031  64.6554 341.4247 0004932 218.1441 141.8545  2.13101375 12384
COSMOS 2564 (761)       
1 54377U 22161A   24133.87859323 -.00000006  00000+0  00000+0 0  9991
2 54377  64.7411 218.1567 0010140 219.6412 140.3373  2.13102098 11326
COSMOS 2569 (703K)      
1 57517U 23114A   24134.36523520  .00000030  00000+0  00000+0 0  9997
2 57517  64.9043  98.4950 0012585 296.3648  63.4809  2.13103970  5963
